{
  "type": "FeatureCollection",
  "features": [
    {
      "type": "Feature",
      "properties": {
        "norad_id": 36036,
        "name": "SMOS",
        "group": "resource",
        "lat": 29.403404401765926,
        "lon": 173.76479086434085,
        "alt_km": 757.3703362384549,
        "timestamp": "2025-12-19T14:48:35.901137+00:00",
        "meta_object_name": "SMOS",
        "meta_object_id": "2009-059A",
        "meta_epoch": "2025-12-19T02:59:48.263424",
        "meta_mean_motion": 14.39746755,
        "meta_eccentricity": 0.00010872,
        "meta_inclination": 98.438,
        "meta_ra_of_asc_node": 178.0787,
        "meta_arg_of_pericenter": 81.3458,
        "meta_mean_anomaly": 278.7854,
        "meta_ephemeris_type": 0,
        "meta_classification_type": "U",
        "meta_norad_cat_id": 36036,
        "meta_element_set_no": 999,
        "meta_rev_at_epoch": 84754,
        "meta_bstar": 0.00011174381,
        "meta_mean_motion_dot": 3.07e-06,
        "meta_mean_motion_ddot": 0,
        "tle_line1": "1 36036U 09059A   25353.12486416  .00000307  00000+0  11174-3 0  9997",
        "tle_line2": "2 36036  98.4380 178.0787 0001087  81.3458 278.7854 14.39746755847545"
      },
      "geometry": {
        "type": "Point",
        "coordinates": [
          173.76479086434085,
          29.403404401765926
        ]
      }
    },
    {
      "type": "Feature",
      "properties": {
        "norad_id": 36110,
        "name": "YAOGAN-7",
        "group": "resource",
        "lat": 72.07654790387103,
        "lon": -150.52781941192396,
        "alt_km": 645.8638919300165,
        "timestamp": "2025-12-19T14:48:35.901148+00:00",
        "meta_object_name": "YAOGAN-7",
        "meta_object_id": "2009-069A",
        "meta_epoch": "2025-12-19T04:43:30.238464",
        "meta_mean_motion": 14.77741395,
        "meta_eccentricity": 0.00233514,
        "meta_inclination": 98.0297,
        "meta_ra_of_asc_node": 234.9307,
        "meta_arg_of_pericenter": 259.2514,
        "meta_mean_anomaly": 100.6067,
        "meta_ephemeris_type": 0,
        "meta_classification_type": "U",
        "meta_norad_cat_id": 36110,
        "meta_element_set_no": 999,
        "meta_rev_at_epoch": 86304,
        "meta_bstar": 7.0029808e-05,
        "meta_mean_motion_dot": 4.51e-06,
        "meta_mean_motion_ddot": 0,
        "tle_line1": "1 36110U 09069A   25353.19687776  .00000451  00000+0  70030-4 0  9997",
        "tle_line2": "2 36110  98.0297 234.9307 0023351 259.2514 100.6067 14.77741395863047"
      },
      "geometry": {
        "type": "Point",
        "coordinates": [
          -150.52781941192396,
          72.07654790387103
        ]
      }
    },
    {
      "type": "Feature",
      "properties": {
        "norad_id": 36605,
        "name": "TANDEM-X",
        "group": "resource",
        "lat": -79.87538571863283,
        "lon": 131.8223388134214,
        "alt_km": 516.9985245432408,
        "timestamp": "2025-12-19T14:48:35.901158+00:00",
        "meta_object_name": "TANDEM-X",
        "meta_object_id": "2010-030A",
        "meta_epoch": "2025-12-18T13:56:33.642816",
        "meta_mean_motion": 15.1915139,
        "meta_eccentricity": 0.00018106,
        "meta_inclination": 97.4444,
        "meta_ra_of_asc_node": 357.8759,
        "meta_arg_of_pericenter": 79.4695,
        "meta_mean_anomaly": 280.6743,
        "meta_ephemeris_type": 0,
        "meta_classification_type": "U",
        "meta_norad_cat_id": 36605,
        "meta_element_set_no": 999,
        "meta_rev_at_epoch": 85922,
        "meta_bstar": 3.9209338e-05,
        "meta_mean_motion_dot": 7.56e-06,
        "meta_mean_motion_ddot": 0,
        "tle_line1": "1 36605U 10030A   25352.58094494  .00000756  00000+0  39209-4 0  9998",
        "tle_line2": "2 36605  97.4444 357.8759 0001810  79.4695 280.6743 15.19151390859229"
      },
      "geometry": {
        "type": "Point",
        "coordinates": [
          131.8223388134214,
          -79.87538571863283
        ]
      }
    },
    {
      "type": "Feature",
      "properties": {
        "norad_id": 36795,
        "name": "CARTOSAT-2B",
        "group": "resource",
        "lat": 25.302855741759412,
        "lon": 38.71617579386624,
        "alt_km": 624.8033943107821,
        "timestamp": "2025-12-19T14:48:35.901176+00:00",
        "meta_object_name": "CARTOSAT-2B",
        "meta_object_id": "2010-035A",
        "meta_epoch": "2025-12-19T06:34:29.922816",
        "meta_mean_motion": 14.78733203,
        "meta_eccentricity": 0.00128638,
        "meta_inclination": 97.7849,
        "meta_ra_of_asc_node": 42.0925,
        "meta_arg_of_pericenter": 57.2879,
        "meta_mean_anomaly": 302.9571,
        "meta_ephemeris_type": 0,
        "meta_classification_type": "U",
        "meta_norad_cat_id": 36795,
        "meta_element_set_no": 999,
        "meta_rev_at_epoch": 83326,
        "meta_bstar": 5.5250266e-05,
        "meta_mean_motion_dot": 3.56e-06,
        "meta_mean_motion_ddot": 0,
        "tle_line1": "1 36795U 10035A   25353.27395744  .00000356  00000+0  55250-4 0  9992",
        "tle_line2": "2 36795  97.7849  42.0925 0012863  57.2879 302.9571 14.78733203833263"
      },
      "geometry": {
        "type": "Point",
        "coordinates": [
          38.71617579386624,
          25.302855741759412
        ]
      }
    },
    {
      "type": "Feature",
      "properties": {
        "norad_id": 36834,
        "name": "YAOGAN-10",
        "group": "resource",
        "lat": -70.10589139164219,
        "lon": 170.78165293746306,
        "alt_km": 623.0221322020316,
        "timestamp": "2025-12-19T14:48:35.901199+00:00",
        "meta_object_name": "YAOGAN-10",
        "meta_object_id": "2010-038A",
        "meta_epoch": "2025-12-19T07:47:37.777920",
        "meta_mean_motion": 14.84634478,
        "meta_eccentricity": 0.00014541,
        "meta_inclination": 97.9137,
        "meta_ra_of_asc_node": 13.0968,
        "meta_arg_of_pericenter": 80.6289,
        "meta_mean_anomaly": 49.5106,
        "meta_ephemeris_type": 0,
        "meta_classification_type": "U",
        "meta_norad_cat_id": 36834,
        "meta_element_set_no": 999,
        "meta_rev_at_epoch": 83051,
        "meta_bstar": 0.00027077204,
        "meta_mean_motion_dot": 2.235e-05,
        "meta_mean_motion_ddot": 0,
        "tle_line1": "1 36834U 10038A   25353.32474280  .00002235  00000+0  27077-3 0  9991",
        "tle_line2": "2 36834  97.9137  13.0968 0001454  80.6289  49.5106 14.84634478830517"
      },
      "geometry": {
        "type": "Point",
        "coordinates": [
          170.78165293746306,
          -70.10589139164219
        ]
      }
    },
    {
      "type": "Feature",
      "properties": {
        "norad_id": 37216,
        "name": "COSMO-SKYMED 4",
        "group": "resource",
        "lat": 65.015266784081,
        "lon": 12.126053182423622,
        "alt_km": 615.384684956507,
        "timestamp": "2025-12-19T14:48:35.901221+00:00",
        "meta_object_name": "COSMO-SKYMED 4",
        "meta_object_id": "2010-060A",
        "meta_epoch": "2025-12-19T06:11:50.745408",
        "meta_mean_motion": 14.82150805,
        "meta_eccentricity": 0.0001383,
        "meta_inclination": 97.8798,
        "meta_ra_of_asc_node": 174.4826,
        "meta_arg_of_pericenter": 82.9242,
        "meta_mean_anomaly": 277.2128,
        "meta_ephemeris_type": 0,
        "meta_classification_type": "U",
        "meta_norad_cat_id": 37216,
        "meta_element_set_no": 999,
        "meta_rev_at_epoch": 81791,
        "meta_bstar": 3.0530842e-05,
        "meta_mean_motion_dot": 1.91e-06,
        "meta_mean_motion_ddot": 0,
        "tle_line1": "1 37216U 10060A   25353.25822622  .00000191  00000+0  30531-4 0  9999",
        "tle_line2": "2 37216  97.8798 174.4826 0001383  82.9242 277.2128 14.82150805817912"
      },
      "geometry": {
        "type": "Point",
        "coordinates": [
          12.126053182423622,
          65.015266784081
        ]
      }
    },
    {
      "type": "Feature",
      "properties": {
        "norad_id": 37387,
        "name": "RESOURCESAT-2",
        "group": "resource",
        "lat": 21.691282753202586,
        "lon": 53.61040593489975,
        "alt_km": 815.2731098055428,
        "timestamp": "2025-12-19T14:48:35.901233+00:00",
        "meta_object_name": "RESOURCESAT-2",
        "meta_object_id": "2011-015A",
        "meta_epoch": "2025-12-19T06:15:40.166784",
        "meta_mean_motion": 14.2159974,
        "meta_eccentricity": 0.00061245,
        "meta_inclination": 98.7869,
        "meta_ra_of_asc_node": 56.7832,
        "meta_arg_of_pericenter": 25.1446,
        "meta_mean_anomaly": 335.0028,
        "meta_ephemeris_type": 0,
        "meta_classification_type": "U",
        "meta_norad_cat_id": 37387,
        "meta_element_set_no": 999,
        "meta_rev_at_epoch": 76061,
        "meta_bstar": 6.9615581e-05,
        "meta_mean_motion_dot": 1.08e-06,
        "meta_mean_motion_ddot": 0,
        "tle_line1": "1 37387U 11015A   25353.26088156  .00000108  00000+0  69616-4 0  9990",
        "tle_line2": "2 37387  98.7869  56.7832 0006124  25.1446 335.0028 14.21599740760616"
      },
      "geometry": {
        "type": "Point",
        "coordinates": [
          53.61040593489975,
          21.691282753202586
        ]
      }
    }
  ]
}